NORAD_CAT_ID,OBJECT_NAME,OBJECT_TYPE,EPOCH,MEAN_MOTION,ECCENTRICITY,INCLINATION,RA_OF_ASC_NODE,ARG_OF_PERICENTER,MEAN_ANOMALY,BSTAR,MEAN_MOTION_DOT,MEAN_MOTION_DDOT,TLE_LINE0,TLE_LINE1,TLE_LINE2,SEMIMAJOR_AXIS,PERIOD,APOGEE,PERIGEE,DECAYED
54191.0,STARLINK-4619,PAYLOAD,2023-01-12 22:00:00,15.36441906,0.0001196,53.2136,125.9567,84.9041,156.7651,-0.036724,-0.01202688,0.0,0 STARLINK-4619,1 54191U 22141AL  23012.91667824 -.01202688  00000-0 -36724-1 0  9993,2 54191  53.2136 125.9567 0001196  84.9041 156.7651 15.36441906  1304,6834.778,93.723,457.46,455.826,0.0
54191.0,STARLINK-4619,PAYLOAD,2023-01-13 06:00:00,15.35591864,0.0001389,53.2176,124.3898,50.6674,235.1974,-0.035571,-0.01139324,0.0,0 STARLINK-4619,1 54191U 22141AL  23013.25001157 -.01139324  00000-0 -35571-1 0  9997,2 54191  53.2176 124.3898 0001389  50.6674 235.1974 15.35591864 12382,6837.3,93.775,460.115,458.215,0.0
54191.0,STARLINK-4619,PAYLOAD,2023-01-13 14:00:01,15.34762648,0.0001144,53.2137,122.8387,82.1075,247.0395,-0.035877,-0.01120552,0.0,0 STARLINK-4619,1 54191U 22141AL  23013.58334491 -.01120552  00000-0 -35877-1 0  9995,2 54191  53.2137 122.8387 0001144  82.1075 247.0395 15.34762648  1307,6839.763000000001,93.826,462.41,460.845,0.0
54191.0,STARLINK-4619,PAYLOAD,2023-01-13 22:00:00,15.33996028,0.0001049,53.2135,121.2819,74.0957,297.3001,-0.039572,-0.01198224,0.0,0 STARLINK-4619,1 54191U 22141AL  23013.91667824 -.01198224  00000-0 -39572-1 0  9998,2 54191  53.2135 121.2819 0001049  74.0957 297.3001 15.33996028  1303,6842.041,93.872,464.624,463.1880000000001,0.0
54191.0,STARLINK-4619,PAYLOAD,2023-01-14 06:00:00,15.33148947,0.0001133,53.2138,119.7263,82.6994,329.98800000000006,-0.037975,-0.01126022,0.0,0 STARLINK-4619,1 54191U 22141AL  23014.25001157 -.01126022  00000-0 -37975-1 0  9999,2 54191  53.2138 119.7263 0001133  82.6994 329.9880 15.33148947 12534,6844.561,93.924,467.202,465.651,0.0
54191.0,STARLINK-4619,PAYLOAD,2023-01-14 14:00:01,15.32089901,0.0001257,53.2166,118.1712,81.1052,11.893,-0.0043258,-0.00133846,0.0,0 STARLINK-4619,1 54191U 22141AL  23014.58334491 -.00133846  00000-0 -43258-2 0  9998,2 54191  53.2166 118.1712 0001257  81.1052  11.8930 15.32089901 12584,6847.715,93.989,470.441,468.719,0.0
54191.0,STARLINK-4619,PAYLOAD,2023-01-14 22:00:00,15.31550217,0.0001274999999999,53.2139,116.6246,70.7647,61.559,-0.042486,-0.01191257,0.0,0 STARLINK-4619,1 54191U 22141AL  23014.91667824 -.01191257  00000-0 -42486-1 0  9996,2 54191  53.2139 116.6246 0001275  70.7647  61.5590 15.31550217 12635,6849.3240000000005,94.022,472.062,470.315,0.0
54191.0,STARLINK-4619,PAYLOAD,2023-01-15 14:00:01,15.29887841,0.0001395999999999,53.2172,113.5252,88.8218,119.2026,-0.041989,-0.01124005,0.0,0 STARLINK-4619,1 54191U 22141AL  23015.58334491 -.01124005  00000-0 -41989-1 0  9995,2 54191  53.2172 113.5252 0001396  88.8218 119.2026 15.29887841 12732,6854.284000000001,94.125,477.106,475.192,0.0
54191.0,STARLINK-4619,PAYLOAD,2023-01-15 22:00:01,15.29105613,0.0001305,53.2145,111.9845,82.3523,162.16,-0.045754,-0.01205356,0.0,0 STARLINK-4619,1 54191U 22141AL  23015.91668981 -.01205356  00000-0 -45754-1 0  9999,2 54191  53.2145 111.9845 0001305  82.3523 162.1600 15.29105613  1306,6856.621999999999,94.173,479.381,477.592,0.0
54191.0,STARLINK-4619,PAYLOAD,2023-01-16 14:00:01,15.27432614,0.0001245,53.215,108.9016,89.3762,224.9438,-0.044385,-0.01103288,0.0,0 STARLINK-4619,1 54191U 22141AL  23016.58334491 -.01103288  00000-0 -44385-1 0  9999,2 54191  53.2150 108.9016 0001245  89.3762 224.9438 15.27432614 12897,6861.627,94.276,484.347,482.638,0.0
54191.0,STARLINK-4619,PAYLOAD,2023-01-16 20:00:01,15.26879254,0.0001269,53.215,107.747,86.9256,162.5659,-0.049443,-0.01215519,0.0,0 STARLINK-4619,1 54191U 22141AL  23016.83334491 -.01215519  00000-0 -49443-1 0  9998,2 54191  53.2150 107.7470 0001269  86.9256 162.5659 15.26879254  1305,6863.285,94.31,486.021,484.279,0.0
54191.0,STARLINK-4619,PAYLOAD,2023-01-17 14:00:01,15.24992399,0.000124,53.2163,104.2905,75.2878,336.4882,-0.047732,-0.01101753,0.0,0 STARLINK-4619,1 54191U 22141AL  23017.58334491 -.01101753  00000-0 -47732-1 0  9994,2 54191  53.2163 104.2905 0001240  75.2878 336.4882 15.24992399 13042,6868.945,94.427,491.662,489.959,0.0
54191.0,STARLINK-4619,PAYLOAD,2023-01-17 22:00:00,15.24208041,0.000126,53.2161,102.7565,77.5899,4.7109,-0.0517799999999999,-0.01177276,0.0,0 STARLINK-4619,1 54191U 22141AL  23017.91667824 -.01177276  00000-0 -51780-1 0  9991,2 54191  53.2161 102.7565 0001260  77.5899   4.7109 15.24208041  1302,6871.302,94.475,494.032,492.301,0.0
54191.0,STARLINK-4619,PAYLOAD,2023-01-18 06:00:00,15.23406878,0.0001414,53.2165,101.2246,84.3396,27.5027,-0.053089,-0.01178352,0.0,0 STARLINK-4619,1 54191U 22141AL  23018.25001157 -.01178352  00000-0 -53089-1 0  9990,2 54191  53.2165 101.2246 0001414  84.3396  27.5027 15.23406878 13149,6873.71,94.525,496.547,494.603,0.0
54191.0,STARLINK-4619,PAYLOAD,2023-01-18 14:00:01,15.22549223,0.0001406,53.2167,99.6973,74.3024,66.1293,-0.051156,-0.01097806,0.0,0 STARLINK-4619,1 54191U 22141AL  23018.58334491 -.01097806  00000-0 -51156-1 0  9993,2 54191  53.2167  99.6973 0001406  74.3024  66.1293 15.22549223  1306,6876.292,94.578,499.1230000000001,497.19,0.0
54191.0,STARLINK-4619,PAYLOAD,2023-01-18 22:00:00,15.21760144,0.0001368,53.2169,98.1687,78.991,89.0344,-0.055121,-0.01165992,0.0,0 STARLINK-4619,1 54191U 22141AL  23018.91667824 -.01165992  00000-0 -55121-1 0  9997,2 54191  53.2169  98.1687 0001368  78.9910  89.0344 15.21760144  1302,6878.668000000001,94.627,501.474,499.592,0.0
54191.0,STARLINK-4619,PAYLOAD,2023-01-19 14:00:01,15.20105613,0.0001426,53.2174,95.1212,78.5545,141.7324,-0.054659,-0.01105989,0.0,0 STARLINK-4619,1 54191U 22141AL  23019.58334491 -.01105989  00000-0 -54659-1 0  9997,2 54191  53.2174  95.1212 0001426  78.5545 141.7324 15.20105613 13359,6883.659000000001,94.73,506.505,504.542,0.0
54191.0,STARLINK-4619,PAYLOAD,2023-01-20 04:00:00,15.18710879,0.0001496999999999,53.2177,92.4577,96.9508,75.8427,-0.059246,-0.01147543,0.0,0 STARLINK-4619,1 54191U 22141AL  23020.16667824 -.01147543  00000-0 -59246-1 0  9991,2 54191  53.2177  92.4577 0001497  96.9508  75.8427 15.18710879 13430,6887.8730000000005,94.817,510.769,508.706,0.0
54191.0,STARLINK-4619,PAYLOAD,2023-01-20 16:00:00,15.17480733,0.0001144,53.2177,90.1831,81.8946,304.9627,-0.0605559999999999,-0.01132963,0.0,0 STARLINK-4619,1 54191U 22141AL  23020.66667824 -.01132963  00000-0 -60556-1 0  9992,2 54191  53.2177  90.1831 0001144  81.8946 304.9627 15.17480733  1309,6891.595,94.894,514.248,512.6709999999999,0.0
54191.0,STARLINK-4619,PAYLOAD,2023-01-20 22:00:00,15.16865542,0.0001217,53.218,89.045,94.0916,218.9796,-0.06232,-0.01144524,0.0,0 STARLINK-4619,1 54191U 22141AL  23020.91667824 -.01144524  00000-0 -62320-1 0  9997,2 54191  53.2180  89.0450 0001217  94.0916 218.9796 15.16865542 13556,6893.4580000000005,94.933,516.1619999999999,514.484,0.0
54191.0,STARLINK-4619,PAYLOAD,2023-01-21 22:00:00,15.14418043,0.0001184,53.2182,84.5086,74.1967,298.1962,-0.066057,-0.01132193,0.0,0 STARLINK-4619,1 54191U 22141AL  23021.91667824 -.01132193  00000-0 -66057-1 0  9998,2 54191  53.2182  84.5086 0001184  74.1967 298.1962 15.14418043 13701,6900.883000000001,95.086,523.565,521.931,0.0
54191.0,STARLINK-4619,PAYLOAD,2023-01-22 14:00:01,15.12779707,0.0001256,53.2183,81.4953,72.0173,335.0311,-0.067072,-0.0110016,0.0,0 STARLINK-4619,1 54191U 22141AL  23022.58334491 -.01100160  00000-0 -67072-1 0  9990,2 54191  53.2183  81.4953 0001256  72.0173 335.0311 15.12779707 13802,6905.8640000000005,95.189,528.597,526.862,0.0
54191.0,STARLINK-4619,PAYLOAD,2023-01-22 22:00:00,15.11971091,0.0001207,53.2183,79.9889,87.0712,335.8429,-0.070036,-0.01121257,0.0,0 STARLINK-4619,1 54191U 22141AL  23022.91667824 -.01121257  00000-0 -70036-1 0  9990,2 54191  53.2183  79.9889 0001207  87.0712 335.8429 15.11971091 13855,6908.326,95.24,531.025,529.3580000000001,0.0
54191.0,STARLINK-4619,PAYLOAD,2023-01-23 14:00:01,15.10340274,0.0001283,53.218,76.987,77.2381,14.462,-0.071969,-0.01102507,0.0,0 STARLINK-4619,1 54191U 22141AL  23023.58334491 -.01102507  00000-0 -71969-1 0  9998,2 54191  53.2180  76.9870 0001283  77.2381  14.4620 15.10340274 13952,6913.298000000001,95.343,536.05,534.276,0.0
54191.0,STARLINK-4619,PAYLOAD,2023-01-24 06:00:00,15.08846382,0.0001401,53.2181,73.9894,93.3288,23.2488,-0.0016744,-0.00026842,0.0,0 STARLINK-4619,1 54191U 22141AL  23024.25001157 -.00026842  00000-0 -16744-2 0  9990,2 54191  53.2181  73.9894 0001401  93.3288  23.2488 15.08846382 14053,6917.861,95.437,540.695,538.757,0.0
54191.0,STARLINK-4619,PAYLOAD,2023-01-25 06:00:00,15.08869267,0.0001473,53.2178,69.5004,102.0404,49.2849,-0.0024576,-0.00039219,0.0,0 STARLINK-4619,1 54191U 22141AL  23025.25001157 -.00039219  00000-0 -24576-2 0  9995,2 54191  53.2178  69.5004 0001473 102.0404  49.2849 15.08869267 14203,6917.791,95.436,540.675,538.637,0.0
54191.0,STARLINK-4619,PAYLOAD,2023-01-25 14:00:01,15.08805545,0.0001403,53.2174,68.005,98.8952,64.0538,0.002283,0.00036199,0.0,0 STARLINK-4619,1 54191U 22141AL  23025.58334491  .00036199  00000-0  22830-2 0  9994,2 54191  53.2174  68.0050 0001403  98.8952  64.0538 15.08805545  1303,6917.986,95.44,540.821,538.88,0.0
54191.0,STARLINK-4619,PAYLOAD,2023-01-25 22:00:00,15.08811039,0.0001453,53.2174,66.5068,110.2025,64.3246,0.0030605,0.00048718,0.0,0 STARLINK-4619,1 54191U 22141AL  23025.91667824  .00048718  00000-0  30605-2 0  9999,2 54191  53.2174  66.5068 0001453 110.2025  64.3246 15.08811039  1304,6917.969,95.439,540.839,538.8290000000001,0.0
54191.0,STARLINK-4619,PAYLOAD,2023-01-26 06:00:00,15.08885789,0.0001513,53.2175,65.0112,105.3303,80.7722,-0.0047167,-0.0007467,0.0,0 STARLINK-4619,1 54191U 22141AL  23026.25001157 -.00074670  00000-0 -47167-2 0  9997,2 54191  53.2175  65.0112 0001513 105.3303  80.7722 15.08885789 14364,6917.74,95.435,540.6519999999999,538.559,0.0
